[{"OBJECT_NAME":"STARLINK-36547","OBJECT_ID":"2026-012AD","EPOCH":"2026-03-09T02:16:23.136672","MEAN_MOTION":15.27595629,"ECCENTRICITY":0.00026118,"INCLINATION":43.0035,"RA_OF_ASC_NODE":317.5088,"ARG_OF_PERICENTER":260.6726,"MEAN_ANOMALY":99.3831,"EPHEMERIS_TYPE":0,"CLASSIFICATION_TYPE":"U","NORAD_CAT_ID":67520,"ELEMENT_SET_NO":999,"REV_AT_EPOCH":767,"BSTAR":0.0012758028,"MEAN_MOTION_DOT":0.0003503,"MEAN_MOTION_DDOT":0},{"OBJECT_NAME":"CZ-6A DEB","OBJECT_ID":"2022-151ME","EPOCH":"2026-03-09T17:07:50.636064","MEAN_MOTION":15.20556855,"ECCENTRICITY":0.00283971,"INCLINATION":98.6182,"RA_OF_ASC_NODE":149.2426,"ARG_OF_PERICENTER":178.5587,"MEAN_ANOMALY":181.5732,"EPHEMERIS_TYPE":0,"CLASSIFICATION_TYPE":"U","NORAD_CAT_ID":54578,"ELEMENT_SET_NO":999,"REV_AT_EPOCH":10518,"BSTAR":0.0077423675,"MEAN_MOTION_DOT":0.00175116,"MEAN_MOTION_DDOT":0}]
